#cP2007  8 28  0  0  0.00000000      96 ORBIT IGS05 HLM  IGS
## 1442 172800.00000000   900.00000000 54340 0.0000000000000
+   31   G01G02G03G04G05G06G07G08G09G10G11G12G13G14G16G17G18
+        G19G20G21G22G23G24G25G26G27G28G29G30G31G32  0  0  0
+          0  0  0  0  0  0  0  0  0  0  0  0  0  0  0  0  0
+          0  0  0  0  0  0  0  0  0  0  0  0  0  0  0  0  0
+          0  0  0  0  0  0  0  0  0  0  0  0  0  0  0  0  0
++         3  3  3  3  3  3  3  3  2  3  3  3  3  2  3  3  3
++         3  3  3  3  3  3  2  3  2  3  3  3  3  5  0  0  0
++         0  0  0  0  0  0  0  0  0  0  0  0  0  0  0  0  0
++         0  0  0  0  0  0  0  0  0  0  0  0  0  0  0  0  0
++         0  0  0  0  0  0  0  0  0  0  0  0  0  0  0  0  0
%c G  cc GPS ccc cccc cccc cccc cccc ccccc ccccc ccccc ccccc
%c cc cc ccc ccc cccc cccc cccc cccc ccccc ccccc ccccc ccccc
%f  1.2500000  1.025000000  0.00000000000  0.000000000000000
%f  0.0000000  0.000000000  0.00000000000  0.000000000000000
%i    0    0    0    0      0      0      0      0         0
%i    0    0    0    0      0      0      0      0         0
/* FINAL ORBIT COMBINATION FROM WEIGHTED AVERAGE OF:        
/* cod emr esa gfz mit ngs sio                              
/* REFERENCED TO IGS TIME (IGST) AND TO WEIGHTED MEAN POLE: 
/* PCV:IGS05_1421 OL/AL:FES2004  NONE     Y  ORB:CMB CLK:CMB
*  2007  8 28 11 15  0.00000000
PG01 -20575.874721 -16638.004363  -2495.967893    148.906570 10  8  6 158       
PG02  13909.740404   9009.758524 -21002.513366    132.335569 10  5 11 178       
PG03 -23878.585995  -8740.463210   8030.359313    107.718875 12  6  7 152       
PG04   7885.692946  19837.816231 -15640.098911     -1.355336  7  6  8 162       
PG05  18988.549509 -16272.169307  -8979.296604    335.664731  6  6  7 137       
PG06   3567.611703 -16322.465693 -20453.430744    246.784099  8 10  8 143       
PG07    975.508396 -17301.197814 -19772.322486    -60.574374 11 10  9 162       
PG08    540.617194  24814.632773   8674.369337   -120.601986  8  5  5 143       
PG09  13759.133530 -14047.282503  17149.906504     85.177348  4  6  5 128       
PG10  23627.168504    994.865793 -12522.070908     86.232449 11  9  8 179       
PG11 -13047.110838  16106.711796  16333.672266     22.866592  7  6  6 110       
PG12  23729.658795 -11340.695920  -3363.901729    -54.208552  8  7  6 172       
PG13  -3256.131951  15653.106806 -21323.892793    201.914183  9  8  5 131       
PG14 -14026.640750 -20504.454219   9613.543242     38.068836  7  6  6 158       
PG16 -20264.550817  -4931.135144 -16464.969052    172.178065  7  9  9 165       
PG17  12638.746440  20691.545767  11020.149119     56.386704  9  4  2 177       
PG18   7937.350838 -16819.134213  18983.597729   -238.707186  7  5  6 142       
PG19 -19655.588862  -1154.774072  17987.236925     61.377035 10  9  8 172       
PG20 -21657.623366  13720.845393  -6979.253135    -28.754470 10  6  6 185       
PG21   5584.385678 -25623.324712   -607.933436     78.535762 10  4  6 122       
PG22  -6248.116710 -14283.141697  21664.908397    195.925217  8  8  6 140       
PG23 -13018.196937   8442.964483 -21660.996684    195.481242  8  7  8 135       
PG24  12614.220014 -20662.625210 -11050.382653     26.172126  6  6  5 131       
PG25  -7072.884463  24429.547588  -7557.703344    422.096011  7  4  5 132       
PG26  21051.159904   5556.925455  15140.501293      7.247774  8  9  7  93       
PG27  -2803.619686  26281.125220     -8.998472    131.543469  7     6 147       
PG28   2733.916758  15207.133774  21924.589102     -5.825530  5  7  4 127       
PG29  22433.972273   8147.685207  12258.755926      5.328792 10 10  6 135       
PG30  14515.897694 -17204.573777 -14337.305874     43.902000  8  7  8 159       
PG31  -9479.775245 -17343.396120 -17508.584821     11.408171 10  9  9 136       
PG32 -17587.775146  -8179.654237  18552.077039     33.078631  8 11  8           
*  2007  8 28 11 30  0.00000000
PG01 -20576.764117 -16854.803354    410.965326    148.908946 10  8  6 153       
PG02  13538.048200  11294.503454 -20141.739500    132.338013 10  6 10 174       
PG03 -24384.362056  -9424.559634   5407.151293    107.724239 12  5  8 156       
PG04   7400.933149  21461.093093 -13556.202632     -1.357271  6  6  8 156       
PG05  19883.020420 -16397.966990  -6341.616898    335.697709  6  6  7 145       
PG06   5580.226826 -14973.107527 -21025.428189    246.784576  8  9  9 139       
PG07   3012.727518 -16048.541192 -20596.069695    -60.668983 11 10  9 168       
PG08    162.388142  25616.979827   5922.294491   -120.602680  8  5  5 139       
PG09  13704.415863 -11871.205746  18728.406005     85.177157  4  6  5 124       
PG10  22253.928177   1690.717228 -14754.547372     86.173029 11  8  8 100       
PG11 -13392.326403  14108.779967  17850.175636     22.867274  7  5  6 104       
PG12  24041.568583 -11192.887213   -512.360507    -54.209679  9  7  6 177       
PG13  -5156.157067  14109.842441 -22016.020448    201.917886  8  8  6 129       
PG14 -12982.750984 -19844.220361  12145.501401     38.071039  7  6  6 148       
PG16 -18463.881356  -5789.394177 -18189.998776    172.180118  7  9  9 168       
PG17  11420.470910  19994.228697  13376.107203     56.385605  8  4  2 168       
PG18   9939.116639 -17371.011027  17438.551229   -238.705543  5  4  6 145       
PG19 -21005.698287  -2552.254253  16233.890579     61.379646 10  9  8 179       
PG20 -22345.888229  13716.211454  -4237.868766    -28.754831 10  6  6 179       
PG21   5904.005941 -25315.043784  -3439.203474     78.535515  9  5  6 118       
PG22  -3940.688262 -15100.649549  21649.048091    195.926971  9  8  6 135       
PG23 -14902.580075   6928.443590 -20990.628515    195.484734  9  7  8 158       
PG24  12559.573684 -19229.938722 -13381.620189     26.175249  5  6  6 130       
PG25  -7262.130411  23365.844979 -10154.643980    422.106867  6  4  6 131       
PG26  22250.919451   6695.351219  12912.070822      7.260027  9  9  7 107       
PG27  -3049.034980  26025.643269  -2880.114310    131.545963  7  1  6 144       
PG28    461.218225  16020.930611  21468.736570     -5.826461  6  6  4 135       
PG29  23321.459161   8987.943747   9746.794788      5.329167 10 10  6 143       
PG30  15951.560452 -17602.734686 -12093.486866     43.902808  8  7  8 156       
PG31  -9061.541873 -19239.420648 -15667.094694     11.407231  9  9  8 151       
PG32 -15600.734289  -8917.736832  19982.484485     33.094660  8 11  8           
*  2007  8 28 11 45  0.00000000
PG01 -20328.564616 -16871.277428   3310.878159    148.913769 10  8  6 159       
PG02  13290.438329  13478.456963 -18942.367308    132.340536  9  7 10 172       
PG03 -24659.890861  -9937.916015   2692.257310    107.729816 12  4  8 161       
PG04   7017.334013  22858.945242 -11235.860220     -1.359302  6  6  7 146       
PG05  20510.518480 -16411.169724  -3594.581471    335.730580  6  5  7 154       
PG06   7691.617363 -13696.788891 -21229.387111    246.784921  7  8  9 145       
PG07   5170.097382 -14855.328110 -21054.148912    -60.763860 10  9 10 175       
PG08   -132.315995  26118.756535   3065.157300   -120.603841  8  6  5 141       
PG09  13755.833049  -9529.675194  19966.038133     85.176872  4  6  5 128       
PG10  20703.953844   2557.458380 -16738.572278     86.114002 11  8  8 180       
PG11 -13831.758114  11975.617929  19053.958770     22.867484  8  5  6 102       
PG12  24068.459368 -10921.822266   2348.045433    -54.210862  9  7  6 183       
PG13  -7188.154052  12645.150123 -22333.259172    201.920417  7  8  6 119       
PG14 -11679.781497 -19084.837307  14470.376050     38.073144  6  5  7 149       
PG16 -16548.398803  -6817.013744 -19601.915599    172.182420  6  9  8 166       
PG17   9959.174121  19217.187647  15503.643587     56.384869  6  4    163       
PG18  11737.908528 -17947.599832  15592.919129   -238.703597  4  5  6 150       
PG19 -22259.014320  -3746.174041  14204.603804     61.381949 11  9  8 182       
PG20 -22752.731749  13606.189941  -1423.552552    -28.755246 11  6  6 179       
PG21   6203.771994 -24703.014155  -6208.950345     78.535293  9  6  6 123       
PG22  -1697.825691 -16025.737070  21265.983670    195.928188  9  7  5 139       
PG23 -16785.787812   5573.292007 -19963.057222    195.488356 10  8  9 165       
PG24  12547.960343 -17545.109795 -15483.103841     26.178277  5  5  6 130       
PG25  -7514.461813  22025.952217 -12575.430222    422.117368  6  4  6 124       
PG26  23298.265296   7599.870957  10461.942935      7.272592  9  9  8 126       
PG27  -3307.976545  25456.587331  -5700.466907    131.547627  7  2  7 151       
PG28  -1704.206982  16926.398588  20652.945710     -5.827135  7  6  4 137       
PG29  24015.524851   9612.601121   7072.027599      5.329653 10  9  6 144       
PG30  17135.008843 -17948.711410  -9643.797990     43.904440  7  6  8 147       
PG31  -8759.196676 -20928.579494 -13551.507492     11.406177  8  9  8 126       
PG32 -13528.619847  -9812.650762  21080.924026     33.110568  9 11  7           
EOF
